NORAD_CAT_ID,OBJECT_NAME,OBJECT_TYPE,EPOCH,MEAN_MOTION,ECCENTRICITY,INCLINATION,RA_OF_ASC_NODE,ARG_OF_PERICENTER,MEAN_ANOMALY,BSTAR,MEAN_MOTION_DOT,MEAN_MOTION_DDOT,TLE_LINE0,TLE_LINE1,TLE_LINE2,SEMIMAJOR_AXIS,PERIOD,APOGEE,PERIGEE,DECAYED
51859.0,STARLINK-3560,PAYLOAD,2023-08-10 20:30:29,15.08839974,7.57e-05,53.2153,277.19,80.9775,279.1303,6.2064e-05,7e-06,0.0,0 STARLINK-3560,1 51859U 22022H   23222.85450642  .00000700  00000-0  62064-4 0  9990,2 51859  53.2153 277.1900 0000757  80.9775 279.1303 15.08839974 80973,6917.88,95.438,540.269,539.222,0.0
51859.0,STARLINK-3560,PAYLOAD,2023-08-12 02:42:49,15.08839106,8.24e-05,53.2147,271.5413,90.211,269.8977,2.772e-05,1.54e-06,0.0,0 STARLINK-3560,1 51859U 22022H   23224.11306883  .00000154  00000-0  27720-4 0  9991,2 51859  53.2147 271.5413 0000824  90.2110 269.8977 15.08839106 81167,6917.883,95.438,540.318,539.178,0.0
51859.0,STARLINK-3560,PAYLOAD,2023-08-13 10:30:31,15.08845372,7.64e-05,53.2157,265.594,78.1014,282.0064,0.00011057,1.473e-05,0.0,0 STARLINK-3560,1 51859U 22022H   23225.43786741  .00001473  00000-0  11057-3 0  9992,2 51859  53.2157 265.5940 0000764  78.1014 282.0064 15.08845372 81365,6917.864,95.437,540.257,539.2,0.0
51859.0,STARLINK-3560,PAYLOAD,2023-08-14 08:45:55,15.08842219,9.16e-05,53.2163,261.4306,77.2026,282.9068,9.1673e-05,1.172e-05,0.0,0 STARLINK-3560,1 51859U 22022H   23226.36522951  .00001172  00000-0  91673-4 0  9995,2 51859  53.2163 261.4306 0000916  77.2026 282.9068 15.08842219 81501,6917.874,95.437,540.372,539.105,0.0
51859.0,STARLINK-3560,PAYLOAD,2023-08-15 11:47:28,15.0884434,8.74e-05,53.2158,256.3737,89.957,270.1522,7.9898e-05,9.84e-06,0.0,0 STARLINK-3560,1 51859U 22022H   23227.49130526  .00000984  00000-0  79898-4 0  9998,2 51859  53.2158 256.3737 0000874  89.9570 270.1522 15.08844340 81672,6917.867,95.437,540.337,539.128,0.0
51859.0,STARLINK-3560,PAYLOAD,2023-08-16 02:05:57,15.08839217,8.95e-05,53.2158,253.6971,88.4046,271.7049,4.4643e-05,4.23e-06,0.0,0 STARLINK-3560,1 51859U 22022H   23228.08746913  .00000423  00000-0  44643-4 0  9995,2 51859  53.2158 253.6971 0000895  88.4046 271.7049 15.08839217 81765,6917.883,95.438,540.367,539.129,0.0
51859.0,STARLINK-3560,PAYLOAD,2023-08-17 11:29:02,15.08842212,9.24e-05,53.2156,247.4526,87.2848,272.825,5.071e-05,5.19e-06,0.0,0 STARLINK-3560,1 51859U 22022H   23229.47850643  .00000519  00000-0  50710-4 0  9993,2 51859  53.2156 247.4526 0000924  87.2848 272.8250 15.08842212 81978,6917.874,95.437,540.378,539.099,0.0
51859.0,STARLINK-3560,PAYLOAD,2023-08-18 01:47:31,15.08835074,9.89e-05,53.2159,244.7755,85.0067,275.1038,2.1342e-05,5.2e-07,0.0,0 STARLINK-3560,1 51859U 22022H   23230.07467314  .00000052  00000-0  21342-4 0  9991,2 51859  53.2159 244.7755 0000989  85.0067 275.1038 15.08835074 82064,6917.895,95.438,540.445,539.076,0.0
51859.0,STARLINK-3560,PAYLOAD,2023-08-19 07:59:51,15.08838596,0.0001049,53.2162,239.1261,85.6876,274.4236,4.4623e-05,4.22e-06,0.0,0 STARLINK-3560,1 51859U 22022H   23231.33323327  .00000422  00000-0  44623-4 0  9994,2 51859  53.2162 239.1261 0001049  85.6876 274.4236 15.08838596 82255,6917.885,95.438,540.475,539.024,0.0
51859.0,STARLINK-3560,PAYLOAD,2023-08-21 01:19:53,15.08837469,0.0001102,53.2162,231.3951,81.9567,278.155,5.3136e-05,5.58e-06,0.0,0 STARLINK-3560,1 51859U 22022H   23233.05547782  .00000558  00000-0  53136-4 0  9997,2 51859  53.2162 231.3951 0001102  81.9567 278.1550 15.08837469 82518,6917.888,95.438,540.515,538.991,0.0
51859.0,STARLINK-3560,PAYLOAD,2023-08-22 04:21:26,15.08840623,0.0001074,53.2158,226.3394,81.6768,278.4346,4.5992e-05,4.44e-06,0.0,0 STARLINK-3560,1 51859U 22022H   23234.18155704  .00000444  00000-0  45992-4 0  9996,2 51859  53.2158 226.3394 0001074  81.6768 278.4346 15.08840623 82686,6917.878,95.438,540.486,539.001,0.0
51859.0,STARLINK-3560,PAYLOAD,2023-08-23 08:58:22,15.08841319,0.0001129,53.2157,220.9872,80.5613,279.5507,6.0283e-05,6.72e-06,0.0,0 STARLINK-3560,1 51859U 22022H   23235.37387630  .00000672  00000-0  60283-4 0  9996,2 51859  53.2157 220.9872 0001129  80.5613 279.5507 15.08841319 82868,6917.876,95.437,540.522,538.96,0.0
51859.0,STARLINK-3560,PAYLOAD,2023-08-24 08:49:10,15.08838769,0.000124,53.217,216.5251,103.924,256.189,1.3706e-05,-7e-07,0.0,0 STARLINK-3560,1 51859U 22022H   23236.36747896 -.00000070  00000-0  13706-4 0  9991,2 51859  53.2170 216.5251 0001240 103.9240 256.1890 15.08838769 83014,6917.884,95.438,540.607,538.891,0.0
51859.0,STARLINK-3560,PAYLOAD,2023-08-25 07:04:34,15.08839666,0.000123,53.2171,212.3628,101.9292,258.1838,4.7463e-05,4.68e-06,0.0,0 STARLINK-3560,1 51859U 22022H   23237.29483905  .00000468  00000-0  47463-4 0  9999,2 51859  53.2171 212.3628 0001230 101.9292 258.1838 15.08839666 83157,6917.881,95.438,540.597,538.896,0.0
51859.0,STARLINK-3560,PAYLOAD,2023-08-26 06:55:21,15.08837192,0.0001132,53.2171,207.9034,96.5666,263.5455,5.6949e-05,6.19e-06,0.0,0 STARLINK-3560,1 51859U 22022H   23238.28844323  .00000619  00000-0  56949-4 0  9991,2 51859  53.2171 207.9034 0001132  96.5666 263.5455 15.08837192 83307,6917.889,95.438,540.537,538.971,0.0
51859.0,STARLINK-3560,PAYLOAD,2023-08-27 06:46:08,15.08841777,0.0001213,53.2167,203.4435,88.4489,271.6642,7.0252e-05,8.3e-06,0.0,0 STARLINK-3560,1 51859U 22022H   23239.28204238  .00000830  00000-0  70252-4 0  9995,2 51859  53.2167 203.4435 0001213  88.4489 271.6642 15.08841777 83459,6917.875,95.437,540.579,538.901,0.0
51859.0,STARLINK-3560,PAYLOAD,2023-08-28 01:50:46,15.08838631,0.0001313,53.2172,199.8725,83.4591,276.655,4.2535e-05,3.89e-06,0.0,0 STARLINK-3560,1 51859U 22022H   23240.07692602  .00000389  00000-0  42535-4 0  9992,2 51859  53.2172 199.8725 0001313  83.4591 276.6550 15.08838631 83576,6917.885,95.438,540.658,538.841,0.0
51859.0,STARLINK-3560,PAYLOAD,2023-08-28 14:33:51,15.08838587,0.0001451,53.2169,197.4957,82.5019,277.6138,4.6412e-05,4.51e-06,0.0,0 STARLINK-3560,1 51859U 22022H   23240.60684648  .00000451  00000-0  46412-4 0  9990,2 51859  53.2169 197.4957 0001451  82.5019 277.6138 15.08838587 83653,6917.885,95.438,540.753,538.746,0.0
51859.0,STARLINK-3560,PAYLOAD,2023-08-29 06:27:42,15.08841332,0.0001279,53.2162,194.5215,88.0357,272.0782,1.0918e-05,-1.14e-06,0.0,0 STARLINK-3560,1 51859U 22022H   23241.26924570 -.00000114  00000-0  10918-4 0  9993,2 51859  53.2162 194.5215 0001279  88.0357 272.0782 15.08841332 83752,6917.876,95.437,540.626,538.857,0.0
51859.0,STARLINK-3560,PAYLOAD,2023-08-30 14:15:25,15.08840508,0.0001369,53.2161,188.575,109.3783,250.7357,-6.7026e-06,-3.95e-06,0.0,0 STARLINK-3560,1 51859U 22022H   23242.59404548 -.00000395  00000-0 -67026-5 0  9993,2 51859  53.2161 188.5750 0001369 109.3783 250.7357 15.08840508 83955,6917.879,95.438,540.691,538.797,0.0
51859.0,STARLINK-3560,PAYLOAD,2023-08-31 06:09:16,15.08841009,0.0001359,53.2163,185.6011,90.2743,269.8405,3.7811e-05,3.14e-06,0.0,0 STARLINK-3560,1 51859U 22022H   23243.25644495  .00000314  00000-0  37811-4 0  9991,2 51859  53.2163 185.6011 0001359  90.2743 269.8405 15.08841009 84052,6917.877,95.437,540.682,538.802,0.0
51859.0,STARLINK-3560,PAYLOAD,2023-09-01 02:49:18,15.08835329,0.0001404,53.2174,181.7366,87.3687,272.7466,-4.1824e-06,-3.54e-06,0.0,0 STARLINK-3560,1 51859U 22022H   23244.11757180 -.00000354  00000-0 -41824-5 0  9999,2 51859  53.2174 181.7366 0001404  87.3687 272.7466 15.08835329 84181,6917.895,95.438,540.731,538.788,0.0
51859.0,STARLINK-3560,PAYLOAD,2023-09-01 12:21:36,15.08838988,0.0001338,53.2155,179.9529,86.7494,273.3651,-1.9337e-05,-5.96e-06,0.0,0 STARLINK-3560,1 51859U 22022H   23244.51501068 -.00000596  00000-0 -19337-4 0  9996,2 51859  53.2155 179.9529 0001338  86.7494 273.3651 15.08838988 84249,6917.883,95.438,540.674,538.823,0.0
51859.0,STARLINK-3560,PAYLOAD,2023-09-01 20:18:32,15.08840799,0.000125,53.2177,178.4645,88.5733,271.5402,5.0431e-05,5.15e-06,0.0,0 STARLINK-3560,1 51859U 22022H   23244.84620775  .00000515  00000-0  50431-4 0  9998,2 51859  53.2177 178.4645 0001250  88.5733 271.5402 15.08840799 84297,6917.878,95.438,540.608,538.878,0.0
51859.0,STARLINK-3560,PAYLOAD,2023-09-02 04:15:27,15.08851176,0.0001334,53.2151,176.9792,89.4454,270.6691,6.305e-05,7.16e-06,0.0,0 STARLINK-3560,1 51859U 22022H   23245.17740052  .00000716  00000-0  63050-4 0  9990,2 51859  53.2151 176.9792 0001334  89.4454 270.6691 15.08851176 84345,6917.846,95.437,540.634,538.788,0.0
51859.0,STARLINK-3560,PAYLOAD,2023-09-03 02:30:52,15.08839594,0.0001319,53.2166,172.8156,87.2696,272.8447,4.5357e-05,4.34e-06,0.0,0 STARLINK-3560,1 51859U 22022H   23246.10476998  .00000434  00000-0  45357-4 0  9996,2 51859  53.2166 172.8156 0001319  87.2696 272.8447 15.08839594 84485,6917.882,95.438,540.659,538.834,0.0
51859.0,STARLINK-3560,PAYLOAD,2023-09-03 12:03:11,15.08834765,0.0001587,53.2175,171.0306,79.6011,280.516,2.5236e-05,1.14e-06,0.0,0 STARLINK-3560,1 51859U 22022H   23246.50221495  .00000114  00000-0  25236-4 0  9999,2 51859  53.2175 171.0306 0001587  79.6011 280.5160 15.08834765 84546,6917.896,95.438,540.859,538.664,0.0
51859.0,STARLINK-3560,PAYLOAD,2023-09-03 23:10:53,15.08834109,0.0002246,53.2175,168.9492,78.6651,281.4593,-6.0192e-05,-1.246e-05,0.0,0 STARLINK-3560,1 51859U 22022H   23246.96590196 -.00001246  00000-0 -60192-4 0  9995,2 51859  53.2175 168.9492 0002246  78.6651 281.4593 15.08834109 84619,6917.898,95.438,541.317,538.21,0.0
51859.0,STARLINK-3560,PAYLOAD,2023-09-04 11:53:58,15.08834381,0.0001537,53.2181,166.5715,85.6518,274.465,7.4507e-05,8.98e-06,0.0,0 STARLINK-3560,1 51859U 22022H   23247.49581848  .00000898  00000-0  74507-4 0  9993,2 51859  53.2181 166.5715 0001537  85.6518 274.4650 15.08834381 84696,6917.898,95.438,540.826,538.699,0.0
51859.0,STARLINK-3560,PAYLOAD,2023-09-05 03:47:49,15.08847622,0.0001494,53.2176,163.5971,86.6193,273.497,9.4869e-05,1.222e-05,0.0,0 STARLINK-3560,1 51859U 22022H   23248.15821040  .00001222  00000-0  94869-4 0  9993,2 51859  53.2176 163.5971 0001494  86.6193 273.4970 15.08847622 84790,6917.857,95.437,540.756,538.689,0.0
